H1 CPF  1  HTS 2022 11 16 12  8201 larets           NONE
H2  0304206 5557    27944 2022 11 16  0  0  0 2022 11 21  0  0  0   180 1 1  0 0 0
H5  0.0560 
H9 
10 0 59902   9000.00000  0    1723400.648     866474.682   -6805997.813
10 0 59902   9180.00000  0    2998563.605     674983.638   -6372711.917
10 0 59902   9360.00000  0    4159888.725     427185.314   -5708067.992
10 0 59902   9540.00000  0    5164095.302     135556.044   -4836048.438
10 0 59902   9720.00000  0    5973813.276    -184775.703   -3788151.114
10 0 59902   9900.00000  0    6559005.965    -516735.200   -2602315.520
10 0 59902  10080.00000  0    6898140.396    -842120.072   -1321600.463
10 0 59902  10260.00000  0    6979046.950   -1142495.207       7355.686
10 0 59902  10440.00000  0    6799415.442   -1400120.846    1336036.506
10 0 59902  10620.00000  0    6366895.595   -1598868.854    2615844.284
10 0 59902  10800.00000  0    5698787.482   -1725077.635    3799915.400
10 0 59902  10980.00000  0    4821333.154   -1768299.312    4844868.500
10 0 59902  11160.00000  0    3768651.878   -1721901.833    5712409.366
10 0 59902  11340.00000  0    2581374.879   -1583494.421    6370734.986
10 0 59902  11520.00000  0    1305041.135   -1355160.667    6795684.747
10 0 59902  11700.00000  0     -11672.507   -1043488.591    6971607.999
10 0 59902  11880.00000  0   -1318820.258    -659392.864    6891925.889
10 0 59902  12060.00000  0   -2567084.691    -217736.337    6559378.017
10 0 59902  12240.00000  0   -3709644.312     263239.350    5985953.326
10 0 59902  12420.00000  0   -4703956.769     762656.748    5192500.526
10 0 59902  12600.00000  0   -5513394.968    1257893.934    4208012.683
10 0 59902  12780.00000  0   -6108665.707    1725591.970    3068595.793
10 0 59902  12960.00000  0   -6468942.858    2142734.373    1816149.357
10 0 59902  13140.00000  0   -6582661.990    2487746.850     496801.802
10 0 59902  13320.00000  0   -6447926.648    2741560.760    -840844.565
10 0 59902  13500.00000  0   -6072496.226    2888578.615   -2147576.253
10 0 59902  13680.00000  0   -5473359.033    2917491.222   -3375449.844
10 0 59902  13860.00000  0   -4675913.452    2821901.218   -4479602.054
10 0 59902  14040.00000  0   -3712814.315    2600722.254   -5419899.874
10 0 59902  14220.00000  0   -2622559.358    2258342.561   -6162365.645
10 0 59902  14400.00000  0   -1447897.298    1804555.023   -6680339.568
10 0 59902  14580.00000  0    -234126.184    1254260.259   -6955355.321
10 0 59902  14760.00000  0     972641.651     626961.798   -6977717.073
10 0 59902  14940.00000  0    2127194.844     -53924.640   -6746789.434
10 0 59902  15120.00000  0    3186876.730    -761931.553   -6270995.295
10 0 59902  15300.00000  0    4113125.196   -1468542.201   -5567523.577
10 0 59902  15480.00000  0    4872858.448   -2144306.969   -4661756.740
10 0 59902  15660.00000  0    5439668.460   -2760044.472   -3586421.211
10 0 59902  15840.00000  0    5794773.769   -3288080.295   -2380468.197
10 0 59902  16020.00000  0    5927689.897   -3703470.957   -1087708.195
10 0 59902  16200.00000  0    5836577.982   -3985156.773     244760.786
10 0 59902  16380.00000  0    5528247.671   -4116986.168    1568276.250
10 0 59902  16560.00000  0    5017803.681   -4088555.218    2834418.822
10 0 59902  16740.00000  0    4327946.421   -3895808.928    3996820.380
10 0 59902  16920.00000  0    3487969.394   -3541377.446    5012890.074
10 0 59902  17100.00000  0    2532500.275   -3034630.999    5845391.063
10 0 59902  17280.00000  0    1500050.588   -2391447.523    6463802.081
10 0 59902  17460.00000  0     431443.380   -1633708.949    6845419.377
10 0 59902  17640.00000  0    -631812.863    -788548.414    6976169.509
10 0 59902  17820.00000  0   -1649140.236     112625.942    6851117.010
10 0 59902  18000.00000  0   -2582443.805    1035298.125    6474657.934
10 0 59902  18180.00000  0   -3397551.220    1943165.994    5860392.719
10 0 59902  18360.00000  0   -4065492.057    2799574.961    5030676.813
10 0 59902  18540.00000  0   -4563572.511    3569016.724    4015849.630
10 0 59902  18720.00000  0   -4876198.044    4218630.719    2853150.521
10 0 59902  18900.00000  0   -4995402.091    4719641.752    1585352.384
10 0 59902  19080.00000  0   -4921049.495    5048663.691     259156.441
10 0 59902  19260.00000  0   -4660701.199    5188790.836   -1076586.726
10 0 59902  19440.00000  0   -4229145.350    5130421.817   -2372751.417
10 0 59902  19620.00000  0   -3647611.756    4871764.395   -3581814.818
10 0 59902  19800.00000  0   -2942724.996    4418996.881   -4659642.702
10 0 59902  19980.00000  0   -2145259.585    3786089.485   -5567099.143
10 0 59902  20160.00000  0   -1288774.425    2994314.866   -6271425.995
10 0 59902  20340.00000  0    -408189.810    2071474.186   -6747360.280
10 0 59902  20520.00000  0     461630.010    1050878.511   -6977957.608
10 0 59902  20700.00000  0    1287231.190     -29864.620   -6955120.490
10 0 59902  20880.00000  0    2037825.064   -1130222.106   -6679833.996
10 0 59902  21060.00000  0    2686403.448   -2208222.778   -6162107.176
10 0 59902  21240.00000  0    3210687.857   -3222017.243   -5420633.499
10 0 59902  21420.00000  0    3593891.376   -4131477.168   -4482172.089
10 0 59902  21600.00000  0    3825261.845   -4899776.161   -3380642.538
10 0 59902  21780.00000  0    3900387.623   -5494889.668   -2155963.186
10 0 59902  21960.00000  0    3821253.289   -5890960.044    -852648.901
10 0 59902  22140.00000  0    3596030.298   -6069450.205     481794.254
10 0 59902  22320.00000  0    3238606.258   -6020022.567    1798614.531
10 0 59902  22500.00000  0    2767873.938   -5741091.638    3049628.610
10 0 59902  22680.00000  0    2206810.625   -5240013.062    4189020.994
10 0 59902  22860.00000  0    1581399.998   -4532905.912    5175046.206
10 0 59902  23040.00000  0     919453.222   -3644116.418    5971570.072
10 0 59902  23220.00000  0     249383.121   -2605346.465    6549390.297
10 0 59902  23400.00000  0    -401009.850   -1454491.648    6887284.513
10 0 59902  23580.00000  0   -1005684.512    -234244.662    6972769.544
10 0 59902  23760.00000  0   -1541400.341    1009494.719    6802558.797
10 0 59902  23940.00000  0   -1988617.142    2229350.162    6382699.499
10 0 59902  24120.00000  0   -2332221.510    3378280.939    5728386.676
10 0 59902  24300.00000  0   -2562054.824    4411417.901    4863454.541
10 0 59902  24480.00000  0   -2673225.024    5287859.831    3819550.326
10 0 59902  24660.00000  0   -2666186.003    5972356.795    2634998.739
10 0 59902  24840.00000  0   -2546576.005    6436795.987    1353387.377
10 0 59902  25020.00000  0   -2324820.587    6661414.263      21926.992
10 0 59902  25200.00000  0   -2015517.988    6635672.434   -1310347.915
10 0 59902  25380.00000  0   -1636639.215    6358738.571   -2594463.484
10 0 59902  25560.00000  0   -1208582.217    5839537.955   -3783376.611
10 0 59902  25740.00000  0    -753143.112    5096391.040   -4833726.395
10 0 59902  25920.00000  0    -292462.402    4156276.260   -5707408.017
10 0 59902  26100.00000  0     152004.613    3053763.286   -6372913.368
10 0 59902  26280.00000  0     560445.300    1829670.499   -6806398.430
10 0 59902  26460.00000  0     915532.507     529517.785   -6992454.078
10 0 59902  26640.00000  0    1203125.547    -798164.225   -6924582.931
10 0 59902  26820.00000  0    1412808.304   -2103616.519   -6605379.331
10 0 59902  27000.00000  0    1538251.275   -3337667.890   -6046420.371
10 0 59902  27180.00000  0    1577392.400   -4453545.726   -5267880.678
10 0 59902  27360.00000  0    1532429.091   -5408633.442   -4297859.606
10 0 59902  27540.00000  0    1409623.265   -6166106.611   -3171432.994
10 0 59902  27720.00000  0    1218921.751   -6696393.012   -1929445.075
10 0 59902  27900.00000  0     973408.381   -6978385.495    -617064.807
10 0 59902  28080.00000  0     688607.987   -7000343.262     717848.408
10 0 59902  28260.00000  0     381674.979   -6760426.810    2026506.083
10 0 59902  28440.00000  0      70507.337   -6266834.175    3261008.329
10 0 59902  28620.00000  0    -227169.752   -5537517.846    4376136.874
10 0 59902  28800.00000  0    -494703.676   -4599501.228    5331033.563
10 0 59902  28980.00000  0    -717348.888   -3487837.836    6090704.152
10 0 59902  29160.00000  0    -882996.018   -2244258.100    6627293.422
10 0 59902  29340.00000  0    -982763.517    -915569.775    6921082.581
10 0 59902  29520.00000  0   -1011428.989     448116.021    6961196.636
10 0 59902  29700.00000  0    -967683.987    1795281.735    6746005.691
10 0 59902  29880.00000  0    -854197.091    3074956.808    6283205.505
10 0 59902  30060.00000  0    -677484.425    4238662.941    5589574.072
10 0 59902  30240.00000  0    -447592.197    5242286.320    4690404.126
10 0 59902  30420.00000  0    -177600.991    6047809.540    3618618.000
10 0 59902  30600.00000  0     117029.094    6624825.107    2413581.972
10 0 59902  30780.00000  0     419242.834    6951771.253    1119652.238
10 0 59902  30960.00000  0     711272.407    7016800.288    -215507.910
10 0 59902  31140.00000  0     975566.709    6818233.644   -1542749.372
10 0 59902  31320.00000  0    1195712.502    6364579.875   -2813317.785
10 0 59902  31500.00000  0    1357297.532    5674121.300   -3980700.697
10 0 59902  31680.00000  0    1448675.224    4774097.328   -5002359.633
10 0 59902  31860.00000  0    1461592.179    3699535.073   -5841270.276
10 0 59902  32040.00000  0    1391648.995    2491802.506   -6467215.149
10 0 59902  32220.00000  0    1238577.446    1196959.342   -6857796.906
10 0 59902  32400.00000  0    1006328.943    -136016.021   -6999156.802
10 0 59902  32580.00000  0     702974.124   -1457062.414   -6886398.817
10 0 59902  32760.00000  0     340418.033   -2716874.559   -6523716.754
10 0 59902  32940.00000  0     -66056.657   -3868692.684   -5924240.339
10 0 59902  33120.00000  0    -498408.814   -4870007.076   -5109597.276
10 0 59902  33300.00000  0    -936598.696   -5684120.248   -4109192.322
99
